STARLINK-30514          
1 58028U 23156A   26068.45955132  .00005738  00000+0  20582-3 0  9998
2 58028  53.1594  79.2374 0001056 100.7224 259.3895 15.30179861136284
TEVEL2-3                
1 63218U 25052J   26068.64540225  .00020365  00000+0  69446-3 0  9991
2 63218  97.3994 324.7775 0004761 105.7353 254.4413 15.30377031 54855
