[{"OBJECT_NAME":"STARLINK-30514","OBJECT_ID":"2023-156A","EPOCH":"2026-03-09T11:01:45.234048","MEAN_MOTION":15.30179861,"ECCENTRICITY":0.00010563,"INCLINATION":53.1594,"RA_OF_ASC_NODE":79.2374,"ARG_OF_PERICENTER":100.7224,"MEAN_ANOMALY":259.3895,"EPHEMERIS_TYPE":0,"CLASSIFICATION_TYPE":"U","NORAD_CAT_ID":58028,"ELEMENT_SET_NO":999,"REV_AT_EPOCH":13628,"BSTAR":0.00020581517,"MEAN_MOTION_DOT":5.738e-5,"MEAN_MOTION_DDOT":0},{"OBJECT_NAME":"TEVEL2-3","OBJECT_ID":"2025-052J","EPOCH":"2026-03-09T15:29:22.754400","MEAN_MOTION":15.30377031,"ECCENTRICITY":0.0004761,"INCLINATION":97.3994,"RA_OF_ASC_NODE":324.7775,"ARG_OF_PERICENTER":105.7353,"MEAN_ANOMALY":254.4413,"EPHEMERIS_TYPE":0,"CLASSIFICATION_TYPE":"U","NORAD_CAT_ID":63218,"ELEMENT_SET_NO":999,"REV_AT_EPOCH":5485,"BSTAR":0.00069446,"MEAN_MOTION_DOT":0.00020365,"MEAN_MOTION_DDOT":0}]
